GREENCUBE               
1 53106U 22080B   24304.53297825 -.00000003  00000+0  00000+0 0  9993
2 53106  70.1303 145.5071 0008350  77.3743 282.7850  6.42557747 53963
CAS-5A (FO-118)         
1 54684U 22167C   24311.43601694  .00124460  00000+0  22885-2 0  9992
2 54684  97.6163 101.3119 0007940 348.8354  11.2718 15.48724352106156
STRATOSAT-TK 1 (RS52S)  
1 57167U 23091B   24311.46453264  .00049633  00000+0  22066-2 0  9998
2 57167  97.5906   4.7511 0012725 352.9896   7.1159 15.21264965 75119
UMKA 1 (RS40S)          
1 57172U 23091G   24311.30900228  .00019562  00000+0  11745-2 0  9994
2 57172  97.5919   2.0559 0015867   0.9237 359.2020 15.10844623 74920
CUBESX-HSE 3 (RS42S)    
1 57178U 23091N   24311.41322426  .00025836  00000+0  14328-2 0  9991
2 57178  97.5958   3.0720 0015581 353.7948   6.3088 15.13649491 74980
MONITOR-4 (RS57S)       
1 57182U 23091S   24311.45938661  .00023016  00000+0  13079-2 0  9994
2 57182  97.5944   2.7817 0016018 354.8582   5.2481 15.12795407 74977
MONITOR-2 (RS39S)       
1 57184U 23091U   24311.47926518  .00015513  00000+0  94224-3 0  9991
2 57184  97.5957   2.6391 0013202 351.6701   8.4307 15.10508987 74963
SVYATOBOR 1 (RS60S)     
1 57187U 23091X   24311.44508092  .00022114  00000+0  12446-2 0  9994
2 57187  97.5951   3.4589 0012283 346.4704  13.6196 15.13194519 75017
VIZARD-METEO (RS38S)    
1 57189U 23091Z   24311.42904848  .00028921  00000+0  15178-2 0  9990
2 57189  97.5946   4.1980 0011005 343.6174  16.4701 15.15639792 75064
NANOZOND 1 (RS49S)      
1 57190U 23091AA  24311.42815413  .00047208  00000+0  21283-2 0  9994
2 57190  97.5915   5.4125 0009065 346.0380  14.0603 15.20835347 75151
POLYTECH-UNIVERSE 3 (R*)
1 57191U 23091AB  24311.41978696  .00015688  00000+0  95034-3 0  9990
2 57191  97.5923   2.1981 0018735   6.3763 353.7701 15.10528099 74940
UTMN 2 (RS27S)          
1 57203U 23091AP  24311.48086936  .00025926  00000+0  13957-2 0  9997
2 57203  97.5947   3.9726 0011320 344.6144  15.4742 15.14757937 75059
ARCCUBE 1 (RS25S)       
1 57205U 23091AR  24311.11290501  .00046666  00000+0  19411-2 0  9999
2 57205  97.5869   5.5147 0008917 345.8324  14.2661 15.23584225 75145
KUZGTU 1 (RS47S)        
1 57217U 23091AV  24311.30867338  .00027195  00000+0  15206-2 0  9995
2 57217  97.5931   2.7433 0015656 354.8530   5.2537 15.13342614 74966
HADES-D (SO-121)        
1 58567U 23174CY  24309.97818561  .05857091  24053-5  40431-2 0  9999
2 58567  97.4081  29.7179 0009578 300.1764  59.8573 16.16392543 55554
SONATE-2                
1 59112U 24043Q   24311.32225121  .00036850  00000+0  14743-2 0  9992
2 59112  97.4938  74.2968 0013464 154.7582 205.4316 15.24904415 37417
MESAT1                  
1 60209U 24125G   24311.49802560  .00036526  00000+0  14538-2 0  9990
2 60209  97.3021 160.8653 0023258 180.1241 179.9995 15.24909273 19053
OOV-CUBE (TUBSAT-30)    
1 60240U 24128F   24311.16075211  .00008140  00000+0  69998-3 0  9999
2 60240  61.9971 109.3055 0022799 354.5009   5.5825 14.97898957 17869
